{
  "norad_id": 63839,
  "name": "STARLINK-34040",
  "history": [
    {
      "epoch": "2026-03-28T17:18:04.874400",
      "apogee_km": 483.2549238962911,
      "perigee_km": 482.64812922700276,
      "latitude_deg": -17.2173795903157,
      "longitude_deg": -86.89458400011063,
      "semi_major_axis_km": 6861.088526561647,
      "eccentricity": 4.422e-05,
      "inclination_deg": 42.9992,
      "raan_deg": 330.3518,
      "arg_perigee_deg": 273.4261,
      "mean_anomaly_deg": 86.654,
      "mean_motion_rev_day": 15.27612585
    },
    {
      "epoch": "2026-03-29T01:08:51.248832",
      "apogee_km": 483.76231032320993,
      "perigee_km": 482.1732784528285,
      "latitude_deg": 25.69626435262022,
      "longitude_deg": -55.50972352013923,
      "semi_major_axis_km": 6861.1047943880185,
      "eccentricity": 0.0001158,
      "inclination_deg": 43.0046,
      "raan_deg": 328.5041,
      "arg_perigee_deg": 262.2654,
      "mean_anomaly_deg": 97.8066,
      "mean_motion_rev_day": 15.27607152
    }
  ]
}